NORAD_CAT_ID,OBJECT_NAME,OBJECT_TYPE,EPOCH,MEAN_MOTION,ECCENTRICITY,INCLINATION,RA_OF_ASC_NODE,ARG_OF_PERICENTER,MEAN_ANOMALY,BSTAR,MEAN_MOTION_DOT,MEAN_MOTION_DDOT,TLE_LINE0,TLE_LINE1,TLE_LINE2,SEMIMAJOR_AXIS,PERIOD,APOGEE,PERIGEE,DECAYED
52830.0,STARLINK-4091,PAYLOAD,2023-05-13 00:13:37,15.08853119,0.0001041,53.2166,345.5154,77.5077,282.6032,0.00019127,2.759e-05,0.0,0 STARLINK-4091,1 52830U 22062A   23133.00946546  .00002759  00000-0  19127-3 0  9992,2 52830  53.2166 345.5154 0001041  77.5077 282.6032 15.08853119 50536,6917.84,95.437,540.425,538.985,0.0
52830.0,STARLINK-4091,PAYLOAD,2023-05-13 20:53:39,15.08841925,0.0001081,53.2166,341.6513,91.8071,268.3045,8.7747e-05,1.109e-05,0.0,0 STARLINK-4091,1 52830U 22062A   23133.87059154  .00001109  00000-0  87747-4 0  9999,2 52830  53.2166 341.6513 0001081  91.8071 268.3045 15.08841925 50165,6917.875,95.437,540.487,538.992,0.0
52830.0,STARLINK-4091,PAYLOAD,2023-05-14 01:39:48,15.08846182,0.0001165,53.2169,340.7583,98.6414,261.471,0.00014621,2.04e-05,0.0,0 STARLINK-4091,1 52830U 22062A   23134.06930832  .00002040  00000-0  14621-3 0  9997,2 52830  53.2169 340.7583 0001165  98.6414 261.4710 15.08846182 50695,6917.861,95.437,540.532,538.921,0.0
52830.0,STARLINK-4091,PAYLOAD,2023-05-14 12:47:30,15.08832742,0.0001175,53.216,338.6764,81.0594,279.0531,-1.7855e-05,-5.72e-06,0.0,0 STARLINK-4091,1 52830U 22062A   23134.53299701 -.00000572  00000-0 -17855-4 0  9995,2 52830  53.2160 338.6764 0001175  81.0594 279.0531 15.08832742 50760,6917.903,95.438,540.58,538.955,0.0
52830.0,STARLINK-4091,PAYLOAD,2023-05-14 20:44:26,15.08840632,0.0001002,53.2158,337.1906,104.3309,255.7794,-2.7129e-05,-7.19e-06,0.0,0 STARLINK-4091,1 52830U 22062A   23134.86419185 -.00000719  00000-0 -27129-4 0  9999,2 52830  53.2158 337.1906 0001002 104.3309 255.7794 15.08840632 50311,6917.878,95.438,540.437,539.05,0.0
52830.0,STARLINK-4091,PAYLOAD,2023-05-14 22:19:49,15.08844222,0.0001068,53.2163,336.8924,98.7454,261.3659,3.9039e-05,3.34e-06,0.0,0 STARLINK-4091,1 52830U 22062A   23134.93043048  .00000334  00000-0  39039-4 0  9992,2 52830  53.2163 336.8924 0001068  98.7454 261.3659 15.08844222 50820,6917.867,95.437,540.471,538.994,0.0
52830.0,STARLINK-4091,PAYLOAD,2023-05-15 06:16:45,15.08839841,0.0001109,53.2164,335.406,91.6587,268.4533,5.998e-05,6.67e-06,0.0,0 STARLINK-4091,1 52830U 22062A   23135.26163299  .00000667  00000-0  59980-4 0  9996,2 52830  53.2164 335.4060 0001109  91.6587 268.4533 15.08839841 50372,6917.881,95.438,540.513,538.979,0.0
52830.0,STARLINK-4091,PAYLOAD,2023-05-15 17:24:27,15.08836183,0.0001058,53.2155,333.3239,92.5185,267.5928,4.2006e-05,3.81e-06,0.0,0 STARLINK-4091,1 52830U 22062A   23135.72531675  .00000381  00000-0  42006-4 0  9998,2 52830  53.2155 333.3239 0001058  92.5185 267.5928 15.08836183 50941,6917.892,95.438,540.489,539.025,0.0
52830.0,STARLINK-4091,PAYLOAD,2023-05-16 06:07:32,15.08841371,0.0001046,53.2155,330.9448,84.1579,275.9532,0.0001463,2.041e-05,0.0,0 STARLINK-4091,1 52830U 22062A   23136.25523626  .00002041  00000-0  14630-3 0  9990,2 52830  53.2155 330.9448 0001046  84.1579 275.9532 15.08841371 50520,6917.876,95.437,540.465,539.018,0.0
52830.0,STARLINK-4091,PAYLOAD,2023-05-16 15:39:51,15.08838573,0.0001026,53.2153,329.1602,88.8209,271.2901,0.00011869,1.602e-05,0.0,0 STARLINK-4091,1 52830U 22062A   23136.65267773  .00001602  00000-0  11869-3 0  9995,2 52830  53.2153 329.1602 0001026  88.8209 271.2901 15.08838573 50584,6917.885,95.438,540.46,539.04,0.0
52830.0,STARLINK-4091,PAYLOAD,2023-05-17 02:47:33,15.08833454,0.0001115,53.2153,327.0783,85.3634,274.7485,-4.3614e-05,-9.82e-06,0.0,0 STARLINK-4091,1 52830U 22062A   23137.11636029 -.00000982  00000-0 -43614-4 0  9997,2 52830  53.2153 327.0783 0001115  85.3634 274.7485 15.08833454 51156,6917.9,95.438,540.537,538.994,0.0
52830.0,STARLINK-4091,PAYLOAD,2023-05-17 18:41:24,15.08843022,0.0001034,53.2152,324.1044,88.5225,271.5886,0.0001605,2.268e-05,0.0,0 STARLINK-4091,1 52830U 22062A   23137.77875712  .00002268  00000-0  16050-3 0  9993,2 52830  53.2152 324.1044 0001034  88.5225 271.5886 15.08843022 51257,6917.871,95.437,540.451,539.021,0.0
52830.0,STARLINK-4091,PAYLOAD,2023-05-17 20:16:47,15.08845413,0.0001003,53.2153,323.8072,87.9734,272.1373,0.00021256,3.097e-05,0.0,0 STARLINK-4091,1 52830U 22062A   23137.84499645  .00003097  00000-0  21256-3 0  9993,2 52830  53.2153 323.8072 0001003  87.9734 272.1373 15.08845413 50768,6917.864,95.437,540.423,539.035,0.0
52830.0,STARLINK-4091,PAYLOAD,2023-05-18 05:49:06,15.08836548,7.65e-05,53.2149,322.0229,89.0057,271.1023,3.6934e-05,3e-06,0.0,0 STARLINK-4091,1 52830U 22062A   23138.24243831  .00000300  00000-0  36934-4 0  9996,2 52830  53.2149 322.0229 0000765  89.0057 271.1023 15.08836548 51326,6917.891,95.438,540.285,539.227,0.0
52830.0,STARLINK-4091,PAYLOAD,2023-05-18 18:32:11,15.08840727,9.16e-05,53.2149,319.6436,86.4141,273.6956,0.00028518,4.254e-05,0.0,0 STARLINK-4091,1 52830U 22062A   23138.77236018  .00004254  00000-0  28518-3 0  9993,2 52830  53.2149 319.6436 0000916  86.4141 273.6956 15.08840727 50900,6917.878,95.438,540.377,539.109,0.0
52830.0,STARLINK-4091,PAYLOAD,2023-05-19 07:15:17,15.0884237,0.0001093,53.215,317.2648,80.3189,279.7927,0.0003023,4.527e-05,0.0,0 STARLINK-4091,1 52830U 22062A   23139.30228114  .00004527  00000-0  30230-3 0  9998,2 52830  53.2150 317.2648 0001093  80.3189 279.7927 15.08842370 51488,6917.873,95.437,540.494,538.982,0.0
52830.0,STARLINK-4091,PAYLOAD,2023-05-19 18:22:58,15.08848037,0.0001055,53.2154,315.1831,80.3202,279.7909,0.00036437,5.517e-05,0.0,0 STARLINK-4091,1 52830U 22062A   23139.76595989  .00005517  00000-0  36437-3 0  9990,2 52830  53.2154 315.1831 0001055  80.3202 279.7909 15.08848037 51056,6917.856,95.437,540.451,538.991,0.0
52830.0,STARLINK-4091,PAYLOAD,2023-05-20 18:13:45,15.08857493,9.91e-05,53.2155,310.7224,81.2943,278.8162,0.00046195,7.075e-05,0.0,0 STARLINK-4091,1 52830U 22062A   23140.75955466  .00007075  00000-0  46195-3 0  9994,2 52830  53.2155 310.7224 0000991  81.2943 278.8162 15.08857493 51703,6917.827,95.436,540.377,539.006,0.0
52830.0,STARLINK-4091,PAYLOAD,2023-05-21 03:46:04,15.08843656,0.0001127,53.2152,308.9384,89.7917,270.3204,8.938e-05,1.135e-05,0.0,0 STARLINK-4091,1 52830U 22062A   23141.15699775  .00001135  00000-0  89380-4 0  9992,2 52830  53.2152 308.9384 0001127  89.7917 270.3204 15.08843656 51768,6917.869,95.437,540.514,538.955,0.0
52830.0,STARLINK-4091,PAYLOAD,2023-05-21 13:18:24,15.08823004,0.0001111,53.2153,307.155,83.8485,276.2634,-0.00035298,-5.898e-05,0.0,0 STARLINK-4091,1 52830U 22062A   23141.55444541 -.00005898  00000-0 -35298-3 0  9995,2 52830  53.2153 307.1550 0001111  83.8485 276.2634 15.08823004 51322,6917.932,95.439,540.566,539.029,0.0
52830.0,STARLINK-4091,PAYLOAD,2023-05-21 18:04:33,15.08829447,8.81e-05,53.2152,306.2633,96.3089,263.8003,-0.00010092,-1.893e-05,0.0,0 STARLINK-4091,1 52830U 22062A   23141.75316629 -.00001893  00000-0 -10092-3 0  9998,2 52830  53.2152 306.2633 0000881  96.3089 263.8003 15.08829447 51852,6917.913,95.438,540.387,539.168,0.0
52830.0,STARLINK-4091,PAYLOAD,2023-05-22 03:36:52,15.08839046,9.5e-05,53.2156,304.4781,98.7944,261.3155,6.5685e-05,7.58e-06,0.0,0 STARLINK-4091,1 52830U 22062A   23142.15060343  .00000758  00000-0  65685-4 0  9998,2 52830  53.2156 304.4781 0000950  98.7944 261.3155 15.08839046 51917,6917.883,95.438,540.406,539.091,0.0
52830.0,STARLINK-4091,PAYLOAD,2023-05-22 11:33:47,15.08845005,9.31e-05,53.2154,302.9915,101.6913,258.4184,0.00011133,1.485e-05,0.0,0 STARLINK-4091,1 52830U 22062A   23142.48180082  .00001485  00000-0  11133-3 0  9993,2 52830  53.2154 302.9915 0000931 101.6913 258.4184 15.08845005 51467,6917.865,95.437,540.374,539.086,0.0
52830.0,STARLINK-4091,PAYLOAD,2023-05-22 17:55:19,15.08851321,9.39e-05,53.2151,301.8022,108.9579,251.1515,0.00033777,5.094e-05,0.0,0 STARLINK-4091,1 52830U 22062A   23142.74675849  .00005094  00000-0  33777-3 0  9990,2 52830  53.2151 301.8022 0000939 108.9579 251.1515 15.08851321 52004,6917.846,95.437,540.36,539.061,0.0
52830.0,STARLINK-4091,PAYLOAD,2023-05-23 03:27:38,15.0884807,6.72e-05,53.2146,300.0177,87.6781,272.4288,0.00026568,3.944e-05,0.0,0 STARLINK-4091,1 52830U 22062A   23143.14419878  .00003944  00000-0  26568-3 0  9995,2 52830  53.2146 300.0177 0000672  87.6781 272.4288 15.08848070 52068,6917.856,95.437,540.186,539.256,0.0
52830.0,STARLINK-4091,PAYLOAD,2023-05-23 16:10:44,15.08832361,0.0001204,53.217,297.6369,77.661,282.4517,-2.5248e-05,-6.9e-06,0.0,0 STARLINK-4091,1 52830U 22062A   23143.67412855 -.00000690  00000-0 -25248-4 0  9993,2 52830  53.2170 297.6369 0001204  77.6610 282.4517 15.08832361 52142,6917.904,95.438,540.602,538.936,0.0
52830.0,STARLINK-4091,PAYLOAD,2023-05-23 17:46:07,15.08834875,9.3e-05,53.2157,297.3415,85.1903,274.9195,6.3124e-05,7.17e-06,0.0,0 STARLINK-4091,1 52830U 22062A   23143.74036759  .00000717  00000-0  63124-4 0  9999,2 52830  53.2157 297.3415 0000930  85.1903 274.9195 15.08834875 51655,6917.896,95.438,540.404,539.118,0.0
52830.0,STARLINK-4091,PAYLOAD,2023-05-24 03:18:26,15.08840428,9.05e-05,53.2155,295.5585,88.6387,271.4708,0.00014486,2.018e-05,0.0,0 STARLINK-4091,1 52830U 22062A   23144.13780710  .00002018  00000-0  14486-3 0  9998,2 52830  53.2155 295.5585 0000905  88.6387 271.4708 15.08840428 52213,6917.879,95.438,540.37,539.118,0.0
52830.0,STARLINK-4091,PAYLOAD,2023-05-24 16:01:31,15.08843906,8.87e-05,53.2155,293.1804,86.2089,273.9004,0.00020355,2.954e-05,0.0,0 STARLINK-4091,1 52830U 22062A   23144.66772682  .00002954  00000-0  20355-3 0  9996,2 52830  53.2155 293.1804 0000887  86.2089 273.9004 15.08843906 51795,6917.868,95.437,540.347,539.12,0.0
52830.0,STARLINK-4091,PAYLOAD,2023-05-25 14:16:55,15.08846446,9.15e-05,53.2152,289.0166,74.7646,285.3447,0.0003356,5.058e-05,0.0,0 STARLINK-4091,1 52830U 22062A   23145.59508773  .00005058  00000-0  33560-3 0  9997,2 52830  53.2152 289.0166 0000915  74.7646 285.3447 15.08846446 51936,6917.861,95.437,540.359,539.093,0.0
